{
  "norad_id": 66105,
  "name": "STARLINK-35561",
  "history": [
    {
      "epoch": "2026-03-28T19:50:10.327488Z",
      "apogee_km": 476.0353790430945,
      "perigee_km": 474.24776985973494,
      "latitude_deg": -3.8749227191190914e-05,
      "longitude_deg": -108.7402398397846,
      "height_km": 476.1273589226746,
      "semi_major_axis_km": 6853.278574451414,
      "eccentricity": 0.00013042,
      "inclination_deg": 53.1599,
      "raan_deg": 15.0442,
      "arg_perigee_deg": 95.6338,
      "mean_anomaly_deg": 264.4811,
      "mean_motion_rev_day": 15.30224615
    },
    {
      "epoch": "2026-03-29T02:06:23.238144Z",
      "apogee_km": 475.8792806661031,
      "perigee_km": 474.52231978165855,
      "latitude_deg": 1.531371055957598e-05,
      "longitude_deg": 155.73399587781114,
      "height_km": 475.89433084729495,
      "semi_major_axis_km": 6853.337800223881,
      "eccentricity": 9.9e-05,
      "inclination_deg": 53.1595,
      "raan_deg": 13.8297,
      "arg_perigee_deg": 72.4193,
      "mean_anomaly_deg": 287.6916,
      "mean_motion_rev_day": 15.30204779
    },
    {
      "epoch": "2026-03-30T04:45:17.986176Z",
      "apogee_km": 475.85529721667444,
      "perigee_km": 474.6134663222965,
      "latitude_deg": 4.6078287531423816e-05,
      "longitude_deg": 109.75458599560571,
      "height_km": 476.2847324278718,
      "semi_major_axis_km": 6853.371381769485,
      "eccentricity": 9.06e-05,
      "inclination_deg": 53.16,
      "raan_deg": 8.6728,
      "arg_perigee_deg": 104.1473,
      "mean_anomaly_deg": 255.9629,
      "mean_motion_rev_day": 15.30193532
    },
    {
      "epoch": "2026-03-30T04:45:17.987040Z",
      "apogee_km": 475.85536575038714,
      "perigee_km": 474.6133977885838,
      "latitude_deg": 4.518320542245065e-05,
      "longitude_deg": 109.75458171887753,
      "height_km": 476.28474917824957,
      "semi_major_axis_km": 6853.371381769485,
      "eccentricity": 9.061e-05,
      "inclination_deg": 53.16,
      "raan_deg": 8.6728,
      "arg_perigee_deg": 104.1473,
      "mean_anomaly_deg": 255.9629,
      "mean_motion_rev_day": 15.30193532
    },
    {
      "epoch": "2026-03-30T21:59:53.312928Z",
      "apogee_km": 475.9329205185395,
      "perigee_km": 474.4039480761485,
      "latitude_deg": 1.8173761439500763e-05,
      "longitude_deg": -152.94027962039632,
      "height_km": 476.15224423175204,
      "semi_major_axis_km": 6853.305434297344,
      "eccentricity": 0.00011155,
      "inclination_deg": 53.16,
      "raan_deg": 5.3333,
      "arg_perigee_deg": 96.4224,
      "mean_anomaly_deg": 263.6904,
      "mean_motion_rev_day": 15.30215619
    },
    {
      "epoch": "2026-03-31T01:07:59.572992Z",
      "apogee_km": 475.9770304567164,
      "perigee_km": 474.41104431467375,
      "latitude_deg": -7.283356537769901e-07,
      "longitude_deg": 159.29997001755692,
      "height_km": 476.1704672132107,
      "semi_major_axis_km": 6853.331037385695,
      "eccentricity": 0.00011425,
      "inclination_deg": 53.1599,
      "raan_deg": 4.7284,
      "arg_perigee_deg": 95.7306,
      "mean_anomaly_deg": 264.3825,
      "mean_motion_rev_day": 15.30207044
    },
    {
      "epoch": "2026-04-01T21:01:29.213184Z",
      "apogee_km": 475.8732820596233,
      "perigee_km": 474.4135333327831,
      "latitude_deg": -5.754216865938934e-05,
      "longitude_deg": -149.36943328572127,
      "height_km": 476.0676464829305,
      "semi_major_axis_km": 6853.280407696203,
      "eccentricity": 0.0001065,
      "inclination_deg": 53.161,
      "raan_deg": 356.2351,
      "arg_perigee_deg": 92.0226,
      "mean_anomaly_deg": 268.0896,
      "mean_motion_rev_day": 15.30224001
    },
    {
      "epoch": "2026-04-02T03:17:41.804160Z",
      "apogee_km": 476.0060123177509,
      "perigee_km": 474.327912309539,
      "latitude_deg": -6.954138173958016e-05,
      "longitude_deg": 115.10628913068847,
      "height_km": 476.0256588573017,
      "semi_major_axis_km": 6853.303962313645,
      "eccentricity": 0.00012243,
      "inclination_deg": 53.1606,
      "raan_deg": 355.0208,
      "arg_perigee_deg": 87.3,
      "mean_anomaly_deg": 272.814,
      "mean_motion_rev_day": 15.30216112
    },
    {
      "epoch": "2026-04-02T23:40:22.904544Z",
      "apogee_km": 475.95576253715535,
      "perigee_km": 474.2224445910415,
      "latitude_deg": -1.2745025085449725e-05,
      "longitude_deg": 164.65448228958095,
      "height_km": 475.73184559074167,
      "semi_major_axis_km": 6853.226103564099,
      "eccentricity": 0.00012646,
      "inclination_deg": 53.1615,
      "raan_deg": 351.0771,
      "arg_perigee_deg": 72.8468,
      "mean_anomaly_deg": 287.2671,
      "mean_motion_rev_day": 15.30242189
    },
    {
      "epoch": "2026-04-03T10:38:45.206592Z",
      "apogee_km": 475.64714500885566,
      "perigee_km": 474.860786929421,
      "latitude_deg": 9.89934328649241e-06,
      "longitude_deg": -2.5127654805268405,
      "height_km": 476.4897281299287,
      "semi_major_axis_km": 6853.390965969138,
      "eccentricity": 5.737e-05,
      "inclination_deg": 53.1613,
      "raan_deg": 348.9534,
      "arg_perigee_deg": 148.7944,
      "mean_anomaly_deg": 211.3091,
      "mean_motion_rev_day": 15.30186973
    },
    {
      "epoch": "2026-04-04T02:19:18.349824Z",
      "apogee_km": 476.0851080456714,
      "perigee_km": 474.47085468096157,
      "latitude_deg": 3.443644115125302e-05,
      "longitude_deg": 118.67067063316004,
      "height_km": 476.00536466727436,
      "semi_major_axis_km": 6853.414981363317,
      "eccentricity": 0.00011777,
      "inclination_deg": 53.161,
      "raan_deg": 345.9187,
      "arg_perigee_deg": 77.772,
      "mean_anomaly_deg": 282.3413,
      "mean_motion_rev_day": 15.3017893
    }
  ]
}